[{"OBJECT_NAME":"ONEWEB-0614","OBJECT_ID":"2023-004S","EPOCH":"2026-01-17T13:05:18.716064","MEAN_MOTION":13.11415286,"ECCENTRICITY":0.00021279,"INCLINATION":87.8816,"RA_OF_ASC_NODE":51.07,"ARG_OF_PERICENTER":98.7595,"MEAN_ANOMALY":261.3774,"EPHEMERIS_TYPE":0,"CLASSIFICATION_TYPE":"U","NORAD_CAT_ID":55156,"ELEMENT_SET_NO":999,"REV_AT_EPOCH":14609,"BSTAR":0.0013457094,"MEAN_MOTION_DOT":4.9e-6,"MEAN_MOTION_DDOT":0},{"OBJECT_NAME":"ONEWEB-0616","OBJECT_ID":"2023-004T","EPOCH":"2026-01-17T11:39:22.165344","MEAN_MOTION":13.17649859,"ECCENTRICITY":0.00015063,"INCLINATION":87.9092,"RA_OF_ASC_NODE":35.8149,"ARG_OF_PERICENTER":59.4192,"MEAN_ANOMALY":300.7088,"EPHEMERIS_TYPE":0,"CLASSIFICATION_TYPE":"U","NORAD_CAT_ID":55157,"ELEMENT_SET_NO":999,"REV_AT_EPOCH":14785,"BSTAR":9.8310773e-5,"MEAN_MOTION_DOT":5.1e-7,"MEAN_MOTION_DDOT":0},{"OBJECT_NAME":"ONEWEB-0617","OBJECT_ID":"2023-004U","EPOCH":"2026-01-17T14:38:05.492256","MEAN_MOTION":13.11417138,"ECCENTRICITY":0.00020172,"INCLINATION":87.8824,"RA_OF_ASC_NODE":51.0373,"ARG_OF_PERICENTER":104.3745,"MEAN_ANOMALY":255.7607,"EPHEMERIS_TYPE":0,"CLASSIFICATION_TYPE":"U","NORAD_CAT_ID":55158,"ELEMENT_SET_NO":999,"REV_AT_EPOCH":14612,"BSTAR":0.0014022492,"MEAN_MOTION_DOT":5.1e-6,"MEAN_MOTION_DDOT":0},{"OBJECT_NAME":"ONEWEB-0618","OBJECT_ID":"2023-004V","EPOCH":"2026-01-17T15:44:50.402688","MEAN_MOTION":15.11290027,"ECCENTRICITY":0.00144737,"INCLINATION":86.9048,"RA_OF_ASC_NODE":238.6844,"ARG_OF_PERICENTER":124.8371,"MEAN_ANOMALY":235.4231,"EPHEMERIS_TYPE":0,"CLASSIFICATION_TYPE":"U","NORAD_CAT_ID":55159,"ELEMENT_SET_NO":999,"REV_AT_EPOCH":15951,"BSTAR":0.00027813156,"MEAN_MOTION_DOT":4.723e-5,"MEAN_MOTION_DDOT":0},{"OBJECT_NAME":"ONEWEB-0619","OBJECT_ID":"2023-004W","EPOCH":"2026-01-17T14:14:53.232288","MEAN_MOTION":13.17648753,"ECCENTRICITY":0.0002143,"INCLINATION":87.9094,"RA_OF_ASC_NODE":35.7668,"ARG_OF_PERICENTER":84.2784,"MEAN_ANOMALY":275.8592,"EPHEMERIS_TYPE":0,"CLASSIFICATION_TYPE":"U","NORAD_CAT_ID":55160,"ELEMENT_SET_NO":999,"REV_AT_EPOCH":14776,"BSTAR":0.0001210486,"MEAN_MOTION_DOT":6.0e-7,"MEAN_MOTION_DDOT":0},{"OBJECT_NAME":"ONEWEB-0620","OBJECT_ID":"2023-004X","EPOCH":"2026-01-17T14:30:45.843264","MEAN_MOTION":13.11417489,"ECCENTRICITY":0.00017491,"INCLINATION":87.8816,"RA_OF_ASC_NODE":51.0574,"ARG_OF_PERICENTER":105.6659,"MEAN_ANOMALY":254.4662,"EPHEMERIS_TYPE":0,"CLASSIFICATION_TYPE":"U","NORAD_CAT_ID":55161,"ELEMENT_SET_NO":999,"REV_AT_EPOCH":14609,"BSTAR":0.0011240682,"MEAN_MOTION_DOT":4.11e-6,"MEAN_MOTION_DDOT":0},{"OBJECT_NAME":"ONEWEB-0621","OBJECT_ID":"2023-004Y","EPOCH":"2026-01-17T15:09:48.587040","MEAN_MOTION":13.11413131,"ECCENTRICITY":0.00020268,"INCLINATION":87.8827,"RA_OF_ASC_NODE":51.0262,"ARG_OF_PERICENTER":95.7939,"MEAN_ANOMALY":264.342,"EPHEMERIS_TYPE":0,"CLASSIFICATION_TYPE":"U","NORAD_CAT_ID":55162,"ELEMENT_SET_NO":999,"REV_AT_EPOCH":14607,"BSTAR":0.00021668296,"MEAN_MOTION_DOT":8.9e-7,"MEAN_MOTION_DDOT":0},{"OBJECT_NAME":"ONEWEB-0622","OBJECT_ID":"2023-004Z","EPOCH":"2026-01-17T15:17:08.184192","MEAN_MOTION":13.11415445,"ECCENTRICITY":0.00024155,"INCLINATION":87.8819,"RA_OF_ASC_NODE":51.031,"ARG_OF_PERICENTER":109.1576,"MEAN_ANOMALY":250.9813,"EPHEMERIS_TYPE":0,"CLASSIFICATION_TYPE":"U","NORAD_CAT_ID":55163,"ELEMENT_SET_NO":999,"REV_AT_EPOCH":14606,"BSTAR":-0.00041948184,"MEAN_MOTION_DOT":-1.36e-6,"MEAN_MOTION_DDOT":0},{"OBJECT_NAME":"ONEWEB-0623","OBJECT_ID":"2023-004AA","EPOCH":"2026-01-17T14:07:36.301440","MEAN_MOTION":13.17650336,"ECCENTRICITY":0.00025678,"INCLINATION":87.9083,"RA_OF_ASC_NODE":35.8146,"ARG_OF_PERICENTER":94.7846,"MEAN_ANOMALY":265.3579,"EPHEMERIS_TYPE":0,"CLASSIFICATION_TYPE":"U","NORAD_CAT_ID":55164,"ELEMENT_SET_NO":999,"REV_AT_EPOCH":14775,"BSTAR":0.00013631024,"MEAN_MOTION_DOT":6.6e-7,"MEAN_MOTION_DDOT":0},{"OBJECT_NAME":"ONEWEB-0624","OBJECT_ID":"2023-004AB","EPOCH":"2026-01-17T12:42:17.825472","MEAN_MOTION":13.12923792,"ECCENTRICITY":0.00020093,"INCLINATION":87.892,"RA_OF_ASC_NODE":20.5274,"ARG_OF_PERICENTER":92.4972,"MEAN_ANOMALY":267.6386,"EPHEMERIS_TYPE":0,"CLASSIFICATION_TYPE":"U","NORAD_CAT_ID":55165,"ELEMENT_SET_NO":999,"REV_AT_EPOCH":14830,"BSTAR":0.0012247705,"MEAN_MOTION_DOT":4.56e-6,"MEAN_MOTION_DDOT":0},{"OBJECT_NAME":"ONEWEB-0625","OBJECT_ID":"2023-004AC","EPOCH":"2026-01-17T12:03:40.397760","MEAN_MOTION":13.17648468,"ECCENTRICITY":0.0001739,"INCLINATION":87.9082,"RA_OF_ASC_NODE":35.8255,"ARG_OF_PERICENTER":87.5275,"MEAN_ANOMALY":272.6055,"EPHEMERIS_TYPE":0,"CLASSIFICATION_TYPE":"U","NORAD_CAT_ID":55166,"ELEMENT_SET_NO":999,"REV_AT_EPOCH":14773,"BSTAR":6.7964886e-5,"MEAN_MOTION_DOT":3.9e-7,"MEAN_MOTION_DDOT":0},{"OBJECT_NAME":"ONEWEB-0626","OBJECT_ID":"2023-004AD","EPOCH":"2026-01-17T11:49:05.251296","MEAN_MOTION":13.17648968,"ECCENTRICITY":0.00014529,"INCLINATION":87.9082,"RA_OF_ASC_NODE":35.8283,"ARG_OF_PERICENTER":105.5806,"MEAN_ANOMALY":254.5486,"EPHEMERIS_TYPE":0,"CLASSIFICATION_TYPE":"U","NORAD_CAT_ID":55167,"ELEMENT_SET_NO":999,"REV_AT_EPOCH":14773,"BSTAR":0.00012067428,"MEAN_MOTION_DOT":6.0e-7,"MEAN_MOTION_DDOT":0},{"OBJECT_NAME":"ONEWEB-0627","OBJECT_ID":"2023-004AE","EPOCH":"2026-01-17T11:32:04.511328","MEAN_MOTION":13.1765063,"ECCENTRICITY":0.00023356,"INCLINATION":87.908,"RA_OF_ASC_NODE":35.8305,"ARG_OF_PERICENTER":97.9832,"MEAN_ANOMALY":262.1565,"EPHEMERIS_TYPE":0,"CLASSIFICATION_TYPE":"U","NORAD_CAT_ID":55168,"ELEMENT_SET_NO":999,"REV_AT_EPOCH":14773,"BSTAR":2.4320957e-5,"MEAN_MOTION_DOT":2.2e-7,"MEAN_MOTION_DDOT":0},{"OBJECT_NAME":"ONEWEB-0628","OBJECT_ID":"2023-004AF","EPOCH":"2026-01-17T10:55:50.346048","MEAN_MOTION":13.1244166,"ECCENTRICITY":0.00025125,"INCLINATION":87.8931,"RA_OF_ASC_NODE":20.5785,"ARG_OF_PERICENTER":88.2111,"MEAN_ANOMALY":271.9306,"EPHEMERIS_TYPE":0,"CLASSIFICATION_TYPE":"U","NORAD_CAT_ID":55169,"ELEMENT_SET_NO":999,"REV_AT_EPOCH":14826,"BSTAR":0.0012004027,"MEAN_MOTION_DOT":4.45e-6,"MEAN_MOTION_DDOT":0},{"OBJECT_NAME":"ONEWEB-0629","OBJECT_ID":"2023-004AG","EPOCH":"2026-01-17T14:35:31.954272","MEAN_MOTION":13.17650957,"ECCENTRICITY":0.00020564,"INCLINATION":87.9082,"RA_OF_ASC_NODE":35.8025,"ARG_OF_PERICENTER":84.3332,"MEAN_ANOMALY":275.8034,"EPHEMERIS_TYPE":0,"CLASSIFICATION_TYPE":"U","NORAD_CAT_ID":55170,"ELEMENT_SET_NO":999,"REV_AT_EPOCH":14775,"BSTAR":-0.00013236322,"MEAN_MOTION_DOT":-3.9e-7,"MEAN_MOTION_DDOT":0},{"OBJECT_NAME":"ONEWEB-0631","OBJECT_ID":"2023-004AH","EPOCH":"2026-01-17T11:40:15.735936","MEAN_MOTION":13.18685658,"ECCENTRICITY":0.00017175,"INCLINATION":87.9188,"RA_OF_ASC_NODE":5.3528,"ARG_OF_PERICENTER":105.1246,"MEAN_ANOMALY":255.0076,"EPHEMERIS_TYPE":0,"CLASSIFICATION_TYPE":"U","NORAD_CAT_ID":55171,"ELEMENT_SET_NO":999,"REV_AT_EPOCH":14981,"BSTAR":4.1113863e-5,"MEAN_MOTION_DOT":2.9e-7,"MEAN_MOTION_DDOT":0},{"OBJECT_NAME":"ONEWEB-0709","OBJECT_ID":"2023-004AJ","EPOCH":"2026-01-17T14:16:06.490848","MEAN_MOTION":13.11418968,"ECCENTRICITY":0.00012203,"INCLINATION":87.882,"RA_OF_ASC_NODE":51.0628,"ARG_OF_PERICENTER":122.0322,"MEAN_ANOMALY":238.0925,"EPHEMERIS_TYPE":0,"CLASSIFICATION_TYPE":"U","NORAD_CAT_ID":55172,"ELEMENT_SET_NO":999,"REV_AT_EPOCH":14613,"BSTAR":-9.311643e-6,"MEAN_MOTION_DOT":9.0e-8,"MEAN_MOTION_DDOT":0}]
