ONEWEB-0614             
1 55156U 23004S   26017.54535551  .00000490  00000+0  13457-2 0  9994
2 55156  87.8816  51.0700 0002127  98.7595 261.3774 13.11415286146092
ONEWEB-0616             
1 55157U 23004T   26017.48567321  .00000051  00000+0  98311-4 0  9995
2 55157  87.9092  35.8149 0001506  59.4192 300.7088 13.17649859147856
ONEWEB-0617             
1 55158U 23004U   26017.60978579  .00000510  00000+0  14022-2 0  9996
2 55158  87.8824  51.0373 0002017 104.3745 255.7607 13.11417138146122
ONEWEB-0618             
1 55159U 23004V   26017.65613892  .00004723  00000+0  27813-3 0  9999
2 55159  86.9048 238.6844 0014473 124.8371 235.4231 15.11290027159511
ONEWEB-0619             
1 55160U 23004W   26017.59367167  .00000060  00000+0  12105-3 0  9993
2 55160  87.9094  35.7668 0002143  84.2784 275.8592 13.17648753147762
ONEWEB-0620             
1 55161U 23004X   26017.60469726  .00000411  00000+0  11241-2 0  9999
2 55161  87.8816  51.0574 0001749 105.6659 254.4662 13.11417489146091
ONEWEB-0621             
1 55162U 23004Y   26017.63181235  .00000089  00000+0  21668-3 0  9995
2 55162  87.8827  51.0262 0002026  95.7939 264.3420 13.11413131146077
ONEWEB-0622             
1 55163U 23004Z   26017.63690028 -.00000136  00000+0 -41948-3 0  9999
2 55163  87.8819  51.0310 0002415 109.1576 250.9813 13.11415445146068
ONEWEB-0623             
1 55164U 23004AA  26017.58861460  .00000066  00000+0  13631-3 0  9992
2 55164  87.9083  35.8146 0002567  94.7846 265.3579 13.17650336147759
ONEWEB-0624             
1 55165U 23004AB  26017.52937298  .00000456  00000+0  12248-2 0  9995
2 55165  87.8920  20.5274 0002009  92.4972 267.6386 13.12923792148305
ONEWEB-0625             
1 55166U 23004AC  26017.50255090  .00000039  00000+0  67965-4 0  9992
2 55166  87.9082  35.8255 0001739  87.5275 272.6055 13.17648468147738
ONEWEB-0626             
1 55167U 23004AD  26017.49242189  .00000060  00000+0  12067-3 0  9992
2 55167  87.9082  35.8283 0001452 105.5806 254.5486 13.17648968147735
ONEWEB-0627             
1 55168U 23004AE  26017.48060777  .00000022  00000+0  24321-4 0  9998
2 55168  87.9080  35.8305 0002335  97.9832 262.1565 13.17650630147735
ONEWEB-0628             
1 55169U 23004AF  26017.45544382  .00000445  00000+0  12004-2 0  9997
2 55169  87.8931  20.5785 0002512  88.2111 271.9306 13.12441660148269
ONEWEB-0629             
1 55170U 23004AG  26017.60800873 -.00000039  00000+0 -13236-3 0  9996
2 55170  87.9082  35.8025 0002056  84.3332 275.8034 13.17650957147750
ONEWEB-0631             
1 55171U 23004AH  26017.48629324  .00000029  00000+0  41114-4 0  9997
2 55171  87.9188   5.3528 0001717 105.1246 255.0076 13.18685658149819
ONEWEB-0709             
1 55172U 23004AJ  26017.59451957  .00000009  00000+0 -93116-5 0  9994
2 55172  87.8820  51.0628 0001220 122.0322 238.0925 13.11418968146130
